{
 "generated_at": "2026-06-13T08:21:29Z",
 "sources": [
  {
   "name": "CelesTrak",
   "url": "https://celestrak.org/NORAD/elements/",
   "license": "frei verfügbar; Attribution. Ursprünglich USSPACECOM/Space-Track."
  },
  {
   "name": "GCAT (J. McDowell, planet4589.org)",
   "url": "https://planet4589.org/space/gcat/",
   "license": "CC-BY 4.0"
  }
 ],
 "satellites": [
  {
   "norad": 68291,
   "name": "STRIX-6",
   "intl": "2026-056A",
   "group": "sar",
   "gcat": {
    "class": "B",
    "category": "IMG-R",
    "owner": "SYNSP",
    "state": "J"
   },
   "omm": {
    "OBJECT_NAME": "STRIX-6",
    "OBJECT_ID": "2026-056A",
    "EPOCH": "2026-06-11T20:45:36.615168",
    "MEAN_MOTION": 15.00133694,
    "ECCENTRICITY": 0.00163851,
    "INCLINATION": 50.2832,
    "RA_OF_ASC_NODE": 14.9533,
    "ARG_OF_PERICENTER": 223.085,
    "MEAN_ANOMALY": 136.8817,
    "EPHEMERIS_TYPE": 0,
    "CLASSIFICATION_TYPE": "U",
    "NORAD_CAT_ID": 68291,
    "ELEMENT_SET_NO": 999,
    "REV_AT_EPOCH": 1247,
    "BSTAR": 0.00026724047,
    "MEAN_MOTION_DOT": 0.00003117,
    "MEAN_MOTION_DDOT": 0
   }
  },
  {
   "norad": 69177,
   "name": "STRIX-7",
   "intl": "2026-112A",
   "group": "sar",
   "gcat": {
    "class": "B",
    "category": "IMG-R",
    "owner": "SYNSP",
    "state": "J"
   },
   "omm": {
    "OBJECT_NAME": "STRIX-7",
    "OBJECT_ID": "2026-112A",
    "EPOCH": "2026-06-12T05:58:15.406752",
    "MEAN_MOTION": 15.01414674,
    "ECCENTRICITY": 0.00236296,
    "INCLINATION": 44.9062,
    "RA_OF_ASC_NODE": 218.3867,
    "ARG_OF_PERICENTER": 18.9817,
    "MEAN_ANOMALY": 341.1931,
    "EPHEMERIS_TYPE": 0,
    "CLASSIFICATION_TYPE": "U",
    "NORAD_CAT_ID": 69177,
    "ELEMENT_SET_NO": 999,
    "REV_AT_EPOCH": 313,
    "BSTAR": 0.00024140292,
    "MEAN_MOTION_DOT": 0.00002947,
    "MEAN_MOTION_DDOT": 0
   }
  },
  {
   "norad": 37849,
   "name": "SUOMI NPP",
   "intl": "2011-061A",
   "group": "weather",
   "gcat": {
    "class": "C",
    "category": "MET",
    "owner": "GSFC/NOAA",
    "state": "US"
   },
   "omm": {
    "OBJECT_NAME": "SUOMI NPP",
    "OBJECT_ID": "2011-061A",
    "EPOCH": "2026-06-12T19:54:23.093280",
    "MEAN_MOTION": 14.1951656,
    "ECCENTRICITY": 0.0001775,
    "INCLINATION": 98.7954,
    "RA_OF_ASC_NODE": 104.7353,
    "ARG_OF_PERICENTER": 16.6889,
    "MEAN_ANOMALY": 343.4345,
    "EPHEMERIS_TYPE": 0,
    "CLASSIFICATION_TYPE": "U",
    "NORAD_CAT_ID": 37849,
    "ELEMENT_SET_NO": 999,
    "REV_AT_EPOCH": 75782,
    "BSTAR": 0.000043507,
    "MEAN_MOTION_DOT": 4.7e-7,
    "MEAN_MOTION_DDOT": 0
   }
  },
  {
   "norad": 25994,
   "name": "TERRA",
   "intl": "1999-068A",
   "group": "resource",
   "gcat": {
    "class": "C",
    "category": "IMG",
    "owner": "GSFC",
    "state": "US"
   },
   "omm": {
    "OBJECT_NAME": "TERRA",
    "OBJECT_ID": "1999-068A",
    "EPOCH": "2026-06-12T20:24:41.076288",
    "MEAN_MOTION": 14.61099845,
    "ECCENTRICITY": 0.0001241,
    "INCLINATION": 97.9457,
    "RA_OF_ASC_NODE": 213.5685,
    "ARG_OF_PERICENTER": 206.695,
    "MEAN_ANOMALY": 269.0097,
    "EPHEMERIS_TYPE": 0,
    "CLASSIFICATION_TYPE": "U",
    "NORAD_CAT_ID": 25994,
    "ELEMENT_SET_NO": 999,
    "REV_AT_EPOCH": 40897,
    "BSTAR": 0.000081719,
    "MEAN_MOTION_DOT": 0.00000357,
    "MEAN_MOTION_DDOT": 0
   }
  },
  {
   "norad": 31698,
   "name": "TERRASAR-X",
   "intl": "2007-026A",
   "group": "resource",
   "gcat": {
    "class": null,
    "category": "IMG-R",
    "owner": "DLR2/EASF",
    "state": "D"
   },
   "omm": {
    "OBJECT_NAME": "TERRASAR-X",
    "OBJECT_ID": "2007-026A",
    "EPOCH": "2026-06-09T06:54:02.843424",
    "MEAN_MOTION": 15.19149435,
    "ECCENTRICITY": 0.00016846,
    "INCLINATION": 97.4448,
    "RA_OF_ASC_NODE": 168.1064,
    "ARG_OF_PERICENTER": 80.8129,
    "MEAN_ANOMALY": 279.3296,
    "EPHEMERIS_TYPE": 0,
    "CLASSIFICATION_TYPE": "U",
    "NORAD_CAT_ID": 31698,
    "ELEMENT_SET_NO": 999,
    "REV_AT_EPOCH": 5202,
    "BSTAR": 0.000023832718,
    "MEAN_MOTION_DOT": 0.00000433,
    "MEAN_MOTION_DDOT": 0
   }
  },
  {
   "norad": 33396,
   "name": "THEOS",
   "intl": "2008-049A",
   "group": "resource",
   "gcat": {
    "class": "C",
    "category": "IMG",
    "owner": "GISTDA",
    "state": "T"
   },
   "omm": {
    "OBJECT_NAME": "THEOS",
    "OBJECT_ID": "2008-049A",
    "EPOCH": "2026-06-12T21:10:41.437920",
    "MEAN_MOTION": 14.20131107,
    "ECCENTRICITY": 0.0001266,
    "INCLINATION": 98.5578,
    "RA_OF_ASC_NODE": 221.3058,
    "ARG_OF_PERICENTER": 80.1875,
    "MEAN_ANOMALY": 279.9445,
    "EPHEMERIS_TYPE": 0,
    "CLASSIFICATION_TYPE": "U",
    "NORAD_CAT_ID": 33396,
    "ELEMENT_SET_NO": 999,
    "REV_AT_EPOCH": 91735,
    "BSTAR": -0.00013131,
    "MEAN_MOTION_DOT": -0.00000322,
    "MEAN_MOTION_DDOT": 0
   }
  }
 ]
}
